[{"OBJECT_NAME":"ONEWEB-0598","OBJECT_ID":"2023-004Q","EPOCH":"2026-03-09T23:23:13.985952","MEAN_MOTION":13.11416908,"ECCENTRICITY":0.00024004,"INCLINATION":87.886,"RA_OF_ASC_NODE":40.7972,"ARG_OF_PERICENTER":89.3726,"MEAN_ANOMALY":270.7677,"EPHEMERIS_TYPE":0,"CLASSIFICATION_TYPE":"U","NORAD_CAT_ID":55154,"ELEMENT_SET_NO":999,"REV_AT_EPOCH":15289,"BSTAR":0.00099479977,"MEAN_MOTION_DOT":3.65e-6,"MEAN_MOTION_DDOT":0},{"OBJECT_NAME":"SL-14 DEB","OBJECT_ID":"1991-056BW","EPOCH":"2026-03-09T09:41:08.880864","MEAN_MOTION":13.13164975,"ECCENTRICITY":0.01069932,"INCLINATION":82.5523,"RA_OF_ASC_NODE":221.1455,"ARG_OF_PERICENTER":88.8151,"MEAN_ANOMALY":272.5225,"EPHEMERIS_TYPE":0,"CLASSIFICATION_TYPE":"U","NORAD_CAT_ID":45332,"ELEMENT_SET_NO":999,"REV_AT_EPOCH":28837,"BSTAR":0.0018140209,"MEAN_MOTION_DOT":6.92e-6,"MEAN_MOTION_DDOT":0}]
